[{"OBJECT_NAME":"RESOURCESAT-2","OBJECT_ID":"2011-015A","EPOCH":"2026-03-09T22:09:34.808256","MEAN_MOTION":14.21500709,"ECCENTRICITY":0.00064275,"INCLINATION":98.7721,"RA_OF_ASC_NODE":137.0095,"ARG_OF_PERICENTER":138.2632,"MEAN_ANOMALY":221.9036,"EPHEMERIS_TYPE":0,"CLASSIFICATION_TYPE":"U","NORAD_CAT_ID":37387,"ELEMENT_SET_NO":999,"REV_AT_EPOCH":77207,"BSTAR":-7.3226423e-5,"MEAN_MOTION_DOT":-2.05e-6,"MEAN_MOTION_DDOT":0},{"OBJECT_NAME":"COSMOS 1275 DEB","OBJECT_ID":"1981-053FV","EPOCH":"2026-03-09T22:44:28.303584","MEAN_MOTION":14.25415161,"ECCENTRICITY":0.00425481,"INCLINATION":82.8312,"RA_OF_ASC_NODE":54.5867,"ARG_OF_PERICENTER":346.1068,"MEAN_ANOMALY":74.7557,"EPHEMERIS_TYPE":0,"CLASSIFICATION_TYPE":"U","NORAD_CAT_ID":13473,"ELEMENT_SET_NO":999,"REV_AT_EPOCH":23369,"BSTAR":0.0019899029,"MEAN_MOTION_DOT":4.754e-5,"MEAN_MOTION_DDOT":0}]
